OBJECT_NAME,OBJECT_ID,EPOCH,MEAN_MOTION,ECCENTRICITY,INCLINATION,RA_OF_ASC_NODE,ARG_OF_PERICENTER,MEAN_ANOMALY,EPHEMERIS_TYPE,CLASSIFICATION_TYPE,NORAD_CAT_ID,ELEMENT_SET_NO,REV_AT_EPOCH,BSTAR,MEAN_MOTION_DOT,MEAN_MOTION_DDOT
FENGYUN 3D,2017-072A,2026-07-23T20:45:04.419072,14.19744823,.0000994,99.0154,179.9540,356.4747,3.6422,0,U,43010,999,45019,-.5998E-4,-.173E-5,0
NOAA 20 (JPSS-1),2017-073A,2026-07-23T19:05:00.508128,14.19517687,.0001662,98.7772,143.9337,114.7848,245.3501,0,U,43013,999,44966,.38454E-4,.37E-6,0
GOES 17,2018-022A,2026-07-23T14:16:11.578080,1.00271882,.0000716,1.0278,85.1400,57.4315,283.3017,0,U,43226,999,3078,0,-.179E-5,0
SENTINEL-3B,2018-039A,2026-07-23T10:43:27.107328,14.26738084,.0001317,98.6229,271.4552,117.9651,242.1662,0,U,43437,999,42929,.48155E-4,.73E-6,0
FENGYUN 2H,2018-050A,2026-07-23T20:29:51.730944,1.00267365,.0002067,3.1234,78.6433,123.0193,126.3794,0,U,43491,999,2980,0,-.123E-5,0
METOP-C,2018-087A,2026-07-23T19:26:45.142080,14.21504535,.0002069,98.6623,263.7403,82.6177,277.5235,0,U,43689,999,40003,.50335E-4,.67E-6,0
GEO-KOMPSAT-2A,2018-100A,2026-07-23T20:26:14.650080,1.00270840,.0002521,0.0155,101.4134,357.7709,277.2109,0,U,43823,999,2799,0,-.339E-5,0
METEOR-M2 2,2019-038A,2026-07-23T21:54:47.458656,14.24374210,.0000148,98.9174,192.7445,340.4931,19.6241,0,U,44387,999,36652,.37861E-5,-.37E-6,0
ARKTIKA-M 1,2021-016A,2026-07-17T21:31:16.955328,2.00610215,.72985164,63.2571,53.1467,270.0868,14.5016,0,U,47719,999,3940,0,-.295E-5,0
FENGYUN 3E,2021-062A,2026-07-23T20:16:01.485696,14.19907416,.0001796,98.7514,207.8452,24.7438,335.3824,0,U,49008,999,26178,.11961E-3,.21E-5,0
GOES 18,2022-021A,2026-07-23T19:24:38.725920,1.00271333,.0000557,0.0171,78.0904,68.3495,309.2539,0,U,51850,999,696,0,0,0
NOAA 21 (JPSS-2),2022-150A,2026-07-23T19:51:19.042272,14.19542073,.0002922,98.7059,143.0012,89.2386,270.9125,0,U,54234,999,19174,.24742E-4,.9E-7,0
METEOSAT-12 (MTG-I1),2022-170C,2026-07-23T21:07:38.548128,1.00270266,.000419,0.7337,21.1444,81.2138,155.7518,0,U,54743,999,1334,0,-.4E-7,0
TIANMU-1 03,2023-039A,2026-07-23T20:04:28.549920,15.48241505,.0001859,97.5249,20.2712,351.5631,8.5587,0,U,55973,999,18650,.32801E-3,.17205E-3,0
TIANMU-1 04,2023-039B,2026-07-23T19:28:21.337248,15.48873477,.0002198,97.5188,19.4024,337.2477,22.8676,0,U,55974,999,18651,.31346E-3,.16804E-3,0
TIANMU-1 05,2023-039C,2026-07-23T19:39:22.071744,15.48162696,.0002241,97.5230,19.8547,24.1157,336.0197,0,U,55975,999,18648,.30998E-3,.16208E-3,0
TIANMU-1 06,2023-039D,2026-07-23T19:36:39.345120,15.48767140,.0002247,97.5239,20.5260,12.0814,348.0490,0,U,55976,999,18651,.30959E-3,.16533E-3,0
FENGYUN 3G,2023-055A,2026-07-23T21:37:16.845888,15.54111589,.0006801,49.9911,156.6292,98.0148,262.1592,0,U,56232,999,18571,.41117E-3,.2688E-3,0
METEOR-M2 3,2023-091A,2026-07-23T20:17:40.621056,14.24049396,.0005031,98.6068,259.0696,70.9740,289.1984,0,U,57166,999,15973,.11389E-4,-.17E-6,0
TIANMU-1 07,2023-101A,2026-07-23T20:32:11.646240,15.30193171,.0003067,97.2578,254.6865,46.5103,313.6393,0,U,57399,999,16725,.2361E-3,.6824E-4,0
TIANMU-1 08,2023-101B,2026-07-23T19:44:01.402080,15.30195727,.0003726,97.2567,254.4192,22.1101,338.0300,0,U,57400,999,16724,.2409E-3,.6965E-4,0
TIANMU-1 09,2023-101C,2026-07-23T20:53:01.474944,15.30240314,.0003661,97.2524,253.8631,44.4430,315.7104,0,U,57401,999,16725,.24537E-3,.7106E-4,0
TIANMU-1 10,2023-101D,2026-07-23T20:07:22.147392,15.30213249,.0004834,97.2604,254.9201,29.7640,330.3875,0,U,57402,999,16724,.24698E-3,.7148E-4,0
FENGYUN 3F,2023-111A,2026-07-23T19:51:35.042688,14.19944462,.0001108,98.6820,274.1502,75.0063,285.1236,0,U,57490,999,15406,.28776E-4,.18E-6,0
ARKTIKA-M 2,2023-198A,2026-07-21T03:45:39.718944,2.00607150,.69126494,63.2169,150.5623,267.3229,18.7284,0,U,58584,999,1900,0,.142E-5,0
TIANMU-1 11,2023-205A,2026-07-23T21:03:13.225824,15.27330737,.0007319,97.3450,225.8653,223.9449,136.1209,0,U,58645,999,14312,.23079E-3,.6108E-4,0
TIANMU-1 12,2023-205B,2026-07-22T16:07:03.245376,15.27003015,.00064874,97.3438,224.4213,209.2071,150.8807,0,U,58646,999,14292,.15785076E-3,.4112E-4,0
TIANMU-1 13,2023-205C,2026-07-23T19:38:42.650016,15.27156275,.0006816,97.3467,225.8341,179.6924,180.4321,0,U,58647,999,14309,.23085E-3,.6077E-4,0
TIANMU-1 14,2023-205D,2026-07-23T20:50:14.050752,15.27200812,.0007421,97.3403,225.0361,186.4154,173.6991,0,U,58648,999,14310,.23642E-3,.6235E-4,0
TIANMU-1 19,2023-208A,2026-07-23T19:15:45.347616,15.32079990,.0005427,97.4524,321.3082,168.2560,191.8809,0,U,58660,999,14293,.30546E-3,.9388E-4,0
TIANMU-1 20,2023-208B,2026-07-23T19:29:17.899008,15.33269902,.0007152,97.4466,321.9912,180.8389,179.2842,0,U,58661,999,14303,.29234E-3,.9327E-4,0
