FENGYUN 3D              
1 43010U 17072A   26204.86463448 -.00000173  00000+0 -59980-4 0  9999
2 43010  99.0154 179.9540 0000994 356.4747   3.6422 14.19744823450190
NOAA 20 (JPSS-1)        
1 43013U 17073A   26204.79514477  .00000037  00000+0  38454-4 0  9994
2 43013  98.7772 143.9337 0001662 114.7848 245.3501 14.19517687449669
GOES 17                 
1 43226U 18022A   26204.59457845 -.00000179  00000+0  00000+0 0  9997
2 43226   1.0278  85.1400 0000716  57.4315 283.3017  1.00271882 30785
SENTINEL-3B             
1 43437U 18039A   26204.44684152  .00000073  00000+0  48155-4 0  9996
2 43437  98.6229 271.4552 0001317 117.9651 242.1662 14.26738084429299
FENGYUN 2H              
1 43491U 18050A   26204.85407096 -.00000123  00000+0  00000+0 0  9993
2 43491   3.1234  78.6433 0002067 123.0193 126.3794  1.00267365 29802
METOP-C                 
1 43689U 18087A   26204.81024470  .00000067  00000+0  50335-4 0  9996
2 43689  98.6623 263.7403 0002069  82.6177 277.5235 14.21504535400037
GEO-KOMPSAT-2A          
1 43823U 18100A   26204.85155845 -.00000339  00000+0  00000+0 0  9999
2 43823   0.0155 101.4134 0002521 357.7709 277.2109  1.00270840 27992
METEOR-M2 2             
1 44387U 19038A   26204.91304929 -.00000037  00000+0  37861-5 0  9998
2 44387  98.9174 192.7445 0000148 340.4931  19.6241 14.24374210366528
ARKTIKA-M 1             
1 47719U 21016A   26198.89672402 -.00000295  00000+0  00000+0 0  9997
2 47719  63.2571  53.1467 7298516 270.0868  14.5016  2.00610215 39409
FENGYUN 3E              
1 49008U 21062A   26204.84446164  .00000210  00000+0  11961-3 0  9996
2 49008  98.7514 207.8452 0001796  24.7438 335.3824 14.19907416261780
GOES 18                 
1 51850U 22021A   26204.80878155  .00000000  00000+0  00000+0 0  9990
2 51850   0.0171  78.0904 0000557  68.3495 309.2539  1.00271333  6962
NOAA 21 (JPSS-2)        
1 54234U 22150A   26204.82730373  .00000009  00000+0  24742-4 0  9996
2 54234  98.7059 143.0012 0002922  89.2386 270.9125 14.19542073191744
METEOSAT-12 (MTG-I1)    
1 54743U 22170C   26204.88030727 -.00000004  00000+0  00000+0 0  9997
2 54743   0.7337  21.1444 0004190  81.2138 155.7518  1.00270266 13345
TIANMU-1 03             
1 55973U 23039A   26204.83644155  .00017205  00000+0  32801-3 0  9997
2 55973  97.5249  20.2712 0001859 351.5631   8.5587 15.48241505186506
TIANMU-1 04             
1 55974U 23039B   26204.81135807  .00016804  00000+0  31346-3 0  9992
2 55974  97.5188  19.4024 0002198 337.2477  22.8676 15.48873477186519
TIANMU-1 05             
1 55975U 23039C   26204.81900546  .00016208  00000+0  30998-3 0  9993
2 55975  97.5230  19.8547 0002241  24.1157 336.0197 15.48162696186486
TIANMU-1 06             
1 55976U 23039D   26204.81712205  .00016533  00000+0  30959-3 0  9995
2 55976  97.5239  20.5260 0002247  12.0814 348.0490 15.48767140186517
FENGYUN 3G              
1 56232U 23055A   26204.90088942  .00026880  00000+0  41117-3 0  9997
2 56232  49.9911 156.6292 0006801  98.0148 262.1592 15.54111589185718
METEOR-M2 3             
1 57166U 23091A   26204.84560904 -.00000017  00000+0  11389-4 0  9994
2 57166  98.6068 259.0696 0005031  70.9740 289.1984 14.24049396159735
TIANMU-1 07             
1 57399U 23101A   26204.85569035  .00006824  00000+0  23610-3 0  9999
2 57399  97.2578 254.6865 0003067  46.5103 313.6393 15.30193171167254
TIANMU-1 08             
1 57400U 23101B   26204.82223845  .00006965  00000+0  24090-3 0  9994
2 57400  97.2567 254.4192 0003726  22.1101 338.0300 15.30195727167243
TIANMU-1 09             
1 57401U 23101C   26204.87015596  .00007106  00000+0  24537-3 0  9996
2 57401  97.2524 253.8631 0003661  44.4430 315.7104 15.30240314167256
TIANMU-1 10             
1 57402U 23101D   26204.83845078  .00007148  00000+0  24698-3 0  9993
2 57402  97.2604 254.9201 0004834  29.7640 330.3875 15.30213249167247
FENGYUN 3F              
1 57490U 23111A   26204.82748892  .00000018  00000+0  28776-4 0  9997
2 57490  98.6820 274.1502 0001108  75.0063 285.1236 14.19944462154069
ARKTIKA-M 2             
1 58584U 23198A   26202.15670971  .00000142  00000+0  00000+0 0  9996
2 58584  63.2169 150.5623 6912649 267.3229  18.7284  2.00607150 19000
TIANMU-1 11             
1 58645U 23205A   26204.87723641  .00006108  00000+0  23079-3 0  9990
2 58645  97.3450 225.8653 0007319 223.9449 136.1209 15.27330737143123
TIANMU-1 12             
1 58646U 23205B   26203.67156534  .00004112  00000+0  15785-3 0  9997
2 58646  97.3438 224.4213 0006487 209.2071 150.8807 15.27003015142920
TIANMU-1 13             
1 58647U 23205C   26204.81854919  .00006077  00000+0  23085-3 0  9991
2 58647  97.3467 225.8341 0006816 179.6924 180.4321 15.27156275143099
TIANMU-1 14             
1 58648U 23205D   26204.86821818  .00006235  00000+0  23642-3 0  9994
2 58648  97.3403 225.0361 0007421 186.4154 173.6991 15.27200812143104
TIANMU-1 19             
1 58660U 23208A   26204.80260819  .00009388  00000+0  30546-3 0  9996
2 58660  97.4524 321.3082 0005427 168.2560 191.8809 15.32079990142933
TIANMU-1 20             
1 58661U 23208B   26204.81201272  .00009327  00000+0  29234-3 0  9991
2 58661  97.4466 321.9912 0007152 180.8389 179.2842 15.33269902143037
